[{"OBJECT_NAME":"BEIJING 1","OBJECT_ID":"2005-043A","EPOCH":"2026-03-05T18:36:16.256160","MEAN_MOTION":14.63457085,"ECCENTRICITY":0.0013449,"INCLINATION":98.2724,"RA_OF_ASC_NODE":197.5157,"ARG_OF_PERICENTER":243.5014,"MEAN_ANOMALY":116.4809,"EPHEMERIS_TYPE":0,"CLASSIFICATION_TYPE":"U","NORAD_CAT_ID":28890,"ELEMENT_SET_NO":999,"REV_AT_EPOCH":8552,"BSTAR":0.00017505,"MEAN_MOTION_DOT":8.58e-6,"MEAN_MOTION_DDOT":0},{"OBJECT_NAME":"HUANJING 1A (HJ-1A)","OBJECT_ID":"2008-041A","EPOCH":"2026-03-05T18:59:16.517760","MEAN_MOTION":14.83705464,"ECCENTRICITY":0.0020568,"INCLINATION":97.6628,"RA_OF_ASC_NODE":54.6825,"ARG_OF_PERICENTER":115.6283,"MEAN_ANOMALY":244.7059,"EPHEMERIS_TYPE":0,"CLASSIFICATION_TYPE":"U","NORAD_CAT_ID":33320,"ELEMENT_SET_NO":999,"REV_AT_EPOCH":94307,"BSTAR":0.00036229,"MEAN_MOTION_DOT":2.955e-5,"MEAN_MOTION_DDOT":0},{"OBJECT_NAME":"HUANJING 1B (HJ-1B)","OBJECT_ID":"2008-041B","EPOCH":"2026-03-05T18:47:16.632096","MEAN_MOTION":14.83088945,"ECCENTRICITY":0.0036789,"INCLINATION":97.6472,"RA_OF_ASC_NODE":58.1482,"ARG_OF_PERICENTER":160.4737,"MEAN_ANOMALY":199.7896,"EPHEMERIS_TYPE":0,"CLASSIFICATION_TYPE":"U","NORAD_CAT_ID":33321,"ELEMENT_SET_NO":999,"REV_AT_EPOCH":94308,"BSTAR":0.00013726,"MEAN_MOTION_DOT":1.079e-5,"MEAN_MOTION_DDOT":0},{"OBJECT_NAME":"YAOGAN-4","OBJECT_ID":"2008-061A","EPOCH":"2026-03-05T17:44:14.866080","MEAN_MOTION":14.82964247,"ECCENTRICITY":0.0015548,"INCLINATION":97.9247,"RA_OF_ASC_NODE":359.0702,"ARG_OF_PERICENTER":51.2045,"MEAN_ANOMALY":309.0555,"EPHEMERIS_TYPE":0,"CLASSIFICATION_TYPE":"U","NORAD_CAT_ID":33446,"ELEMENT_SET_NO":999,"REV_AT_EPOCH":93033,"BSTAR":0.00025484,"MEAN_MOTION_DOT":2.02e-5,"MEAN_MOTION_DDOT":0},{"OBJECT_NAME":"DEIMOS-1","OBJECT_ID":"2009-041A","EPOCH":"2026-03-05T17:54:24.286752","MEAN_MOTION":14.75108707,"ECCENTRICITY":0.0002066,"INCLINATION":97.7246,"RA_OF_ASC_NODE":226.5367,"ARG_OF_PERICENTER":123.3932,"MEAN_ANOMALY":236.7475,"EPHEMERIS_TYPE":0,"CLASSIFICATION_TYPE":"U","NORAD_CAT_ID":35681,"ELEMENT_SET_NO":999,"REV_AT_EPOCH":89163,"BSTAR":0.00018526,"MEAN_MOTION_DOT":1.202e-5,"MEAN_MOTION_DDOT":0},{"OBJECT_NAME":"UK-DMC 2","OBJECT_ID":"2009-041C","EPOCH":"2026-03-05T16:53:16.986048","MEAN_MOTION":14.75842383,"ECCENTRICITY":0.0001084,"INCLINATION":97.8647,"RA_OF_ASC_NODE":202.3144,"ARG_OF_PERICENTER":90.4256,"MEAN_ANOMALY":269.7078,"EPHEMERIS_TYPE":0,"CLASSIFICATION_TYPE":"U","NORAD_CAT_ID":35683,"ELEMENT_SET_NO":999,"REV_AT_EPOCH":89130,"BSTAR":0.00025668,"MEAN_MOTION_DOT":1.711e-5,"MEAN_MOTION_DDOT":0},{"OBJECT_NAME":"DMC3-FM1","OBJECT_ID":"2015-032A","EPOCH":"2026-03-05T18:06:26.653824","MEAN_MOTION":14.85605545,"ECCENTRICITY":0.0006701,"INCLINATION":97.6619,"RA_OF_ASC_NODE":293.898,"ARG_OF_PERICENTER":44.0258,"MEAN_ANOMALY":316.149,"EPHEMERIS_TYPE":0,"CLASSIFICATION_TYPE":"U","NORAD_CAT_ID":40715,"ELEMENT_SET_NO":999,"REV_AT_EPOCH":57455,"BSTAR":8.1513e-5,"MEAN_MOTION_DOT":6.54e-6,"MEAN_MOTION_DDOT":0},{"OBJECT_NAME":"DMC3-FM2","OBJECT_ID":"2015-032B","EPOCH":"2026-03-05T18:38:37.316256","MEAN_MOTION":14.85608242,"ECCENTRICITY":0.0007236,"INCLINATION":97.6673,"RA_OF_ASC_NODE":295.4219,"ARG_OF_PERICENTER":47.6694,"MEAN_ANOMALY":312.5133,"EPHEMERIS_TYPE":0,"CLASSIFICATION_TYPE":"U","NORAD_CAT_ID":40716,"ELEMENT_SET_NO":999,"REV_AT_EPOCH":57455,"BSTAR":9.7777e-5,"MEAN_MOTION_DOT":7.95e-6,"MEAN_MOTION_DDOT":0},{"OBJECT_NAME":"DMC3-FM3","OBJECT_ID":"2015-032C","EPOCH":"2026-03-05T19:11:50.781120","MEAN_MOTION":14.85609334,"ECCENTRICITY":0.0006525,"INCLINATION":97.6728,"RA_OF_ASC_NODE":297.1301,"ARG_OF_PERICENTER":48.9214,"MEAN_ANOMALY":311.2564,"EPHEMERIS_TYPE":0,"CLASSIFICATION_TYPE":"U","NORAD_CAT_ID":40717,"ELEMENT_SET_NO":999,"REV_AT_EPOCH":57456,"BSTAR":0.00016178,"MEAN_MOTION_DOT":1.349e-5,"MEAN_MOTION_DDOT":0}]
